GLOBAL-31               
1 63027U 25033B   26202.23555991  .00008139  00000+0  22118-3 0  9999
2 63027  58.9974 178.5746 0012536  59.8168 300.4148 15.38390229 79563
GLOBAL-32               
1 64231U 25118B   26201.78089441  .00009092  00000+0  23779-3 0  9995
2 64231  58.9944 356.5800 0016932  64.4966 295.7859 15.39379040 63410
GLOBAL-33               
1 66554U 25267A   26201.37486367  .00005393  00000+0  15133-3 0  9998
2 66554  42.0181 223.1104 0008282 133.7280 226.4247 15.37288054 37157
GLOBAL-34               
1 68098U 26043A   26202.23243706  .00008198  00000+0  25770-3 0  9994
2 68098  42.0223  23.8372 0002759 193.5365 166.5399 15.33186559 21059
